{
  "updatedAt": "2026-03-20T16:26:01.420Z",
  "entries": {
    "spaceeye-t": {
      "fetchedAt": "2026-03-20T16:26:01.420Z",
      "fleetEntry": {
        "id": "spaceeye-t",
        "name": "SpaceEye-T",
        "englishName": "SPACEEYE-T1",
        "domesticName": "SpaceEye-T",
        "color": "#ff9059",
        "norad": "63229",
        "orbitClass": "leo",
        "orbitLabel": "LEO SSO",
        "missionType": "earth-observation",
        "missionLabel": "상업 광학 지구관측",
        "operationalStatus": "운용 중",
        "objectId": "2025-052V",
        "launchDate": "2025-03-15",
        "sourceDate": "2026-03-20",
        "sourceLabel": "Space-Track cached GP",
        "omm": {
          "CCSDS_OMM_VERS": "3.0",
          "COMMENT": "GENERATED VIA SPACE-TRACK.ORG API",
          "CREATION_DATE": "2026-03-20T14:46:35",
          "ORIGINATOR": "18 SPCS",
          "OBJECT_NAME": "SPACEEYE-T1",
          "OBJECT_ID": "2025-052V",
          "CENTER_NAME": "EARTH",
          "REF_FRAME": "TEME",
          "TIME_SYSTEM": "UTC",
          "MEAN_ELEMENT_THEORY": "SGP4",
          "EPOCH": "2026-03-20T10:41:20.095008",
          "MEAN_MOTION": 15.21618479,
          "ECCENTRICITY": 0.0006683,
          "INCLINATION": 97.4055,
          "RA_OF_ASC_NODE": 333.4186,
          "ARG_OF_PERICENTER": 98.4665,
          "MEAN_ANOMALY": 261.7328,
          "EPHEMERIS_TYPE": 0,
          "CLASSIFICATION_TYPE": "U",
          "NORAD_CAT_ID": 63229,
          "ELEMENT_SET_NO": 999,
          "REV_AT_EPOCH": 5634,
          "BSTAR": 0.00019722,
          "MEAN_MOTION_DOT": 0.00004386,
          "MEAN_MOTION_DDOT": 0,
          "SEMIMAJOR_AXIS": "6879.095",
          "PERIOD": "94.636",
          "APOAPSIS": "505.558",
          "PERIAPSIS": "496.363",
          "OBJECT_TYPE": "PAYLOAD",
          "RCS_SIZE": "LARGE",
          "COUNTRY_CODE": "SKOR",
          "LAUNCH_DATE": "2025-03-15",
          "SITE": "AFWTR",
          "DECAY_DATE": null,
          "FILE": "5093838",
          "GP_ID": "316581777",
          "TLE_LINE0": "0 SPACEEYE-T1",
          "TLE_LINE1": "1 63229U 25052V   26079.44537147  .00004386  00000-0  19722-3 0  9990",
          "TLE_LINE2": "2 63229  97.4055 333.4186 0006683  98.4665 261.7328 15.21618479 56344"
        }
      }
    },
    "kompsat-2": {
      "fetchedAt": "2026-03-20T16:26:01.420Z",
      "fleetEntry": {
        "id": "kompsat-2",
        "name": "KOMPSAT 2",
        "englishName": "KOMPSAT 2",
        "domesticName": "아리랑위성 2호",
        "color": "#ffd166",
        "norad": "29268",
        "orbitClass": "leo",
        "orbitLabel": "LEO SSO",
        "missionType": "earth-observation",
        "missionLabel": "상업 지구관측",
        "operationalStatus": "운용 중",
        "objectId": "2006-031A",
        "launchDate": "2006-07-28",
        "sourceDate": "2026-03-20",
        "sourceLabel": "Space-Track cached GP",
        "omm": {
          "CCSDS_OMM_VERS": "3.0",
          "COMMENT": "GENERATED VIA SPACE-TRACK.ORG API",
          "CREATION_DATE": "2026-03-20T14:46:35",
          "ORIGINATOR": "18 SPCS",
          "OBJECT_NAME": "KOMPSAT 2",
          "OBJECT_ID": "2006-031A",
          "CENTER_NAME": "EARTH",
          "REF_FRAME": "TEME",
          "TIME_SYSTEM": "UTC",
          "MEAN_ELEMENT_THEORY": "SGP4",
          "EPOCH": "2026-03-20T13:09:10.654272",
          "MEAN_MOTION": 14.64596395,
          "ECCENTRICITY": 0.0014455,
          "INCLINATION": 97.8299,
          "RA_OF_ASC_NODE": 268.2775,
          "ARG_OF_PERICENTER": 0.5988,
          "MEAN_ANOMALY": 59.8442,
          "EPHEMERIS_TYPE": 0,
          "CLASSIFICATION_TYPE": "U",
          "NORAD_CAT_ID": 29268,
          "ELEMENT_SET_NO": 999,
          "REV_AT_EPOCH": 4850,
          "BSTAR": -0.0000063018,
          "MEAN_MOTION_DOT": -7.9e-7,
          "MEAN_MOTION_DDOT": 0,
          "SEMIMAJOR_AXIS": "7056.508",
          "PERIOD": "98.321",
          "APOAPSIS": "688.574",
          "PERIAPSIS": "668.173",
          "OBJECT_TYPE": "PAYLOAD",
          "RCS_SIZE": "LARGE",
          "COUNTRY_CODE": "SKOR",
          "LAUNCH_DATE": "2006-07-28",
          "SITE": "PKMTR",
          "DECAY_DATE": null,
          "FILE": "5093792",
          "GP_ID": "316580688",
          "TLE_LINE0": "0 KOMPSAT 2",
          "TLE_LINE1": "1 29268U 06031A   26079.54803998 -.00000079  00000-0 -63018-5 0  9998",
          "TLE_LINE2": "2 29268  97.8299 268.2775 0014455   0.5988  59.8442 14.64596395 48500"
        }
      }
    },
    "kompsat-3": {
      "fetchedAt": "2026-03-20T16:26:01.420Z",
      "fleetEntry": {
        "id": "kompsat-3",
        "name": "KOMPSAT 3",
        "englishName": "KOMPSAT 3",
        "domesticName": "아리랑위성 3호",
        "color": "#7bdff2",
        "norad": "38338",
        "orbitClass": "leo",
        "orbitLabel": "LEO SSO",
        "missionType": "earth-observation",
        "missionLabel": "상업 지구관측",
        "operationalStatus": "운용 중",
        "objectId": "2012-025B",
        "launchDate": "2012-05-17",
        "sourceDate": "2026-03-20",
        "sourceLabel": "Space-Track cached GP",
        "omm": {
          "CCSDS_OMM_VERS": "3.0",
          "COMMENT": "GENERATED VIA SPACE-TRACK.ORG API",
          "CREATION_DATE": "2026-03-20T14:26:40",
          "ORIGINATOR": "18 SPCS",
          "OBJECT_NAME": "KOMPSAT 3",
          "OBJECT_ID": "2012-025B",
          "CENTER_NAME": "EARTH",
          "REF_FRAME": "TEME",
          "TIME_SYSTEM": "UTC",
          "MEAN_ELEMENT_THEORY": "SGP4",
          "EPOCH": "2026-03-20T11:32:41.177760",
          "MEAN_MOTION": 14.62116273,
          "ECCENTRICITY": 0.0006325,
          "INCLINATION": 98.1082,
          "RA_OF_ASC_NODE": 38.524,
          "ARG_OF_PERICENTER": 43.3395,
          "MEAN_ANOMALY": 316.8303,
          "EPHEMERIS_TYPE": 0,
          "CLASSIFICATION_TYPE": "U",
          "NORAD_CAT_ID": 38338,
          "ELEMENT_SET_NO": 999,
          "REV_AT_EPOCH": 73838,
          "BSTAR": 0.00010194,
          "MEAN_MOTION_DOT": 0.00000466,
          "MEAN_MOTION_DDOT": 0,
          "SEMIMAJOR_AXIS": "7064.486",
          "PERIOD": "98.487",
          "APOAPSIS": "690.819",
          "PERIAPSIS": "681.883",
          "OBJECT_TYPE": "PAYLOAD",
          "RCS_SIZE": "LARGE",
          "COUNTRY_CODE": "SKOR",
          "LAUNCH_DATE": "2012-05-17",
          "SITE": "TNSTA",
          "DECAY_DATE": null,
          "FILE": "5093194",
          "GP_ID": "316565962",
          "TLE_LINE0": "0 KOMPSAT 3",
          "TLE_LINE1": "1 38338U 12025B   26079.48103215  .00000466  00000-0  10194-3 0  9997",
          "TLE_LINE2": "2 38338  98.1082  38.5240 0006325  43.3395 316.8303 14.62116273738386"
        }
      }
    },
    "kompsat-3a": {
      "fetchedAt": "2026-03-20T16:26:01.420Z",
      "fleetEntry": {
        "id": "kompsat-3a",
        "name": "KOMPSAT 3A",
        "englishName": "KOMPSAT 3A",
        "domesticName": "아리랑위성 3A호",
        "color": "#f78fb3",
        "norad": "40536",
        "orbitClass": "leo",
        "orbitLabel": "LEO SSO",
        "missionType": "earth-observation",
        "missionLabel": "상업 지구관측",
        "operationalStatus": "운용 중",
        "objectId": "2015-014A",
        "launchDate": "2015-03-25",
        "sourceDate": "2026-03-20",
        "sourceLabel": "Space-Track cached GP",
        "omm": {
          "CCSDS_OMM_VERS": "3.0",
          "COMMENT": "GENERATED VIA SPACE-TRACK.ORG API",
          "CREATION_DATE": "2026-03-20T14:36:41",
          "ORIGINATOR": "18 SPCS",
          "OBJECT_NAME": "KOMPSAT 3A",
          "OBJECT_ID": "2015-014A",
          "CENTER_NAME": "EARTH",
          "REF_FRAME": "TEME",
          "TIME_SYSTEM": "UTC",
          "MEAN_ELEMENT_THEORY": "SGP4",
          "EPOCH": "2026-03-20T12:16:52.792032",
          "MEAN_MOTION": 15.49238798,
          "ECCENTRICITY": 0.0064375,
          "INCLINATION": 97.6881,
          "RA_OF_ASC_NODE": 64.7101,
          "ARG_OF_PERICENTER": 138.712,
          "MEAN_ANOMALY": 221.9024,
          "EPHEMERIS_TYPE": 0,
          "CLASSIFICATION_TYPE": "U",
          "NORAD_CAT_ID": 40536,
          "ELEMENT_SET_NO": 999,
          "REV_AT_EPOCH": 60806,
          "BSTAR": 0.00031196,
          "MEAN_MOTION_DOT": 0.00018428,
          "MEAN_MOTION_DDOT": 0,
          "SEMIMAJOR_AXIS": "6797.089",
          "PERIOD": "92.949",
          "APOAPSIS": "462.710",
          "PERIAPSIS": "375.197",
          "OBJECT_TYPE": "PAYLOAD",
          "RCS_SIZE": "LARGE",
          "COUNTRY_CODE": "SKOR",
          "LAUNCH_DATE": "2015-03-25",
          "SITE": "OREN",
          "DECAY_DATE": null,
          "FILE": "5093292",
          "GP_ID": "316568488",
          "TLE_LINE0": "0 KOMPSAT 3A",
          "TLE_LINE1": "1 40536U 15014A   26079.51172213  .00018428  00000-0  31196-3 0  9991",
          "TLE_LINE2": "2 40536  97.6881  64.7101 0064375 138.7120 221.9024 15.49238798608061"
        }
      }
    }
  }
}